402P/LINEAR,e,30.8318,123.0654,326.8781,7.034875,0.0528226,0.43998037,48.9388,06/29.0/2024,2000,g  9.0,4.0
# From MPEC 2021-J28
403P/Catalina,e,12.3291,277.5733,163.9100,5.430795,0.0778770,0.50429540,107.5169,06/29.0/2024,2000,g 12.0,4.0
# From MPEC 2024-MB8
404P/Bressi,e,9.8030,260.0388,169.3121,4.725790,0.0959384,0.12550665,22.8716,06/29.0/2024,2000,g 10.0,4.0
# From MPEC 2021-L04
405P/Lemmon,e,9.3760,112.1903,3.2960,3.604644,0.1440159,0.68992055,184.6417,06/29.0/2024,2000,g 17.5,4.0
# From MPEC 2021-F20
406P/Gibbs,e,1.2108,352.4104,11.5483,3.578506,0.1455967,0.54146392,201.2368,06/29.0/2024,2000,g 17.0,4.0
# From MPEC 2022-YN2
407P/PANSTARRS-Fuls,e,4.8763,80.2429,93.4280,3.486367,0.1514064,0.37674626,245.4080,06/29.0/2024,2000,g 14.0,4.0
# From MPEC 2024-L77
408P/Novichonok-Gerke,e,19.3559,189.4453,226.6015,4.743824,0.0953919,0.26866048,60.3071,06/29.0/2024,2000,g 11.0,4.0
# From MPEC 2022-ED3
409P/LONEOS-Hill,e,17.1365,143.6464,15.0523,6.033788,0.0664996,0.70990988,82.9808,06/29.0/2024,2000,g 14.0,4.0
# From MPEC 2022-M21
410P/NEAT-LINEAR,e,9.3887,139.9636,313.1750,6.648914,0.0574881,0.51167712,63.2756,06/29.0/2024,2000,g 12.5,4.0
# From MPEC 2021-J28
411P/Christensen,e,12.3894,77.6533,46.5524,5.811291,0.0703550,0.58146874,88.0194,06/29.0/2024,2000,g 13.5,4.0
# From MPEC 2021-F20
412P/WISE,e,8.9310,0.8457,155.8919,3.110615,0.1796530,0.47896188,234.0957,06/29.0/2024,2000,g 17.0,4.0
# From MPEC 2022-OB6
413P/Larson,e,15.9740,39.2320,186.5448,3.733040,0.1366502,0.41916629,147.1627,06/29.0/2024,2000,g 14.0,4.0
# From MPEC 2024-JU4
414P/STEREO,e,23.4075,257.8179,210.6914,2.792725,0.2111844,0.81215381,264.0473,06/29.0/2024,2000,g 19.0,4.0
# From MPEC 2022-J42
415P/Tenagra,e,31.7992,160.2669,345.8743,4.109457,0.1183116,0.19515840,145.6956,06/29.0/2024,2000,g 12.0,4.0
# From MPEC 2021-L04
416P/Scotti,e,3.3621,355.7587,134.4133,4.007534,0.1228537,0.45507021,151.0041,06/29.0/2024,2000,g 15.5,4.0
# From MPEC 2021-W31
417P/NEOWISE,e,8.5463,121.0671,118.4803,3.304190,0.1640992,0.57302177,189.7560,06/29.0/2024,2000,g 16.5,4.0
# From MPEC 2022-TA0
418P/LINEAR,e,5.7803,277.6421,307.3661,5.093491,0.0857395,0.66372140,84.5679,06/29.0/2024,2000,g 13.0,4.0
# From MPEC 2023-UR6
419P/PANSTARRS,e,2.8004,40.4158,187.8886,3.528595,0.1486967,0.27562775,145.1082,06/29.0/2024,2000,g 12.5,4.0
# From MPEC 2024-L77
420P/Hill,e,14.4852,173.7575,156.5137,5.499090,0.0764307,0.49535659,58.9478,06/29.0/2024,2000,g 11.5,4.0
# From MPEC 2021-W31
421P/McNaught,e,10.0758,55.3316,259.8947,5.076187,0.0861783,0.67460968,107.8297,06/29.0/2024,2000,g 14.0,4.0
# From MPEC 2022-X67
422P/Christensen,e,39.5827,36.0227,304.8210,6.280423,0.0626211,0.50623045,56.3127,06/29.0/2024,2000,g 11.0,4.0
# From MPEC 2023-FK0
423P/Lemmon,e,8.3453,33.2992,80.5952,6.177389,0.0641943,0.12253900,64.8688,06/29.0/2024,2000,g  8.0,4.0
# From MPEC 2022-CN4
424P/LaSagra,e,8.6829,51.1942,312.5564,4.419733,0.1060743,0.69085033,103.0586,06/29.0/2024,2000,g 17.0,4.0
# From MPEC 2024-C04
425P/Kowalski,e,16.4199,210.0768,200.9247,6.347163,0.0616360,0.54400872,62.3716,06/29.0/2024,2000,g 12.0,4.0
# From MPEC 2024-A43
426P/PANSTARRS,e,17.7822,280.3946,118.5318,3.187272,0.1732110,0.16132781,50.5754,06/29.0/2024,2000,g 13.5,4.0
# From MPEC 2023-J29
428P/Gibbs,e,8.5051,299.3248,36.9057,3.487409,0.1513386,0.51860456,172.8261,06/29.0/2024,2000,g 15.0,4.0
# From MPEC 2024-EF7
429P/LINEAR-Hill,e,7.5160,322.0446,75.6786,3.554712,0.1470610,0.49123943,133.6297,06/29.0/2024,2000,g 15.5,4.0
# From MPEC 2022-L66
430P/Scotti,e,4.4752,54.6658,94.4242,3.104043,0.1802239,0.49991180,169.3605,06/29.0/2024,2000,g 16.5,4.0
# From MPEC 2024-EF7
431P/Scotti,e,22.3893,202.8433,199.9691,3.476034,0.1520821,0.47767072,131.7661,06/29.0/2024,2000,g 14.0,4.0
# From MPEC 2021-U31
432P/PANSTARRS,e,10.0683,239.1288,105.3231,3.037234,0.1862030,0.24121536,192.5543,06/29.0/2024,2000,g 17.0,4.0
# From MPEC 2024-D33
434P/Tenagra,e,6.3360,288.9306,128.3407,4.134031,0.1172583,0.27466043,114.4470,06/29.0/2024,2000,g 13.0,4.0
# From MPEC 2021-W31
435P/PANSTARRS,e,18.8745,98.5319,244.2445,3.020600,0.1877432,0.31791484,200.5134,06/29.0/2024,2000,g 17.0,4.0
# From MPEC 2022-X67
436P/Garradd,e,20.2005,87.1638,282.7234,5.935473,0.0681587,0.66951350,63.6364,06/29.0/2024,2000,g 14.5,4.0
# From MPEC 2023-B57
437P/Lemmon-PANSTARRS,e,3.6890,245.8414,206.9287,4.566183,0.1010123,0.25506951,68.6308,06/29.0/2024,2000,g 13.0,4.0
# From MPEC 2021-W47
438P/Christensen,e,8.2809,260.1133,59.0342,3.851052,0.1304172,0.41448112,201.7889,06/29.0/2024,2000,g 14.5,4.0
# From MPEC 2022-C56
439P/LINEAR,e,7.1135,56.4346,342.0874,3.491009,0.1511046,0.46944756,156.7811,06/29.0/2024,2000,g 13.5,4.0
# From MPEC 2022-WQ9
440P/Kobayashi,e,12.3436,328.8357,183.2861,8.576812,0.0392388,0.76058350,32.2533,06/29.0/2024,2000,g 15.5,4.0
# From MPEC 2022-X67
441P/PANSTARRS,e,2.5744,143.6002,178.8617,4.133523,0.1172799,0.19497373,308.7088,06/29.0/2024,2000,g 13.5,4.0
# From MPEC 2024-BE0
442P/McNaught,e,6.0577,31.9967,310.7239,4.961786,0.0891758,0.53267077,60.7035,06/29.0/2024,2000,g 13.5,4.0
# From MPEC 2023-SQ0
443P/PANSTARRS-Christensen,e,19.8879,108.9408,145.1088,4.125362,0.1176281,0.28326903,73.8720,06/29.0/2024,2000,g 13.5,4.0
# From MPEC 2023-VM5
444P/WISE-PANSTARRS,e,22.4377,88.5741,172.1234,3.446569,0.1540365,0.56893219,110.8489,06/29.0/2024,2000,g 17.0,4.0
# From MPEC 2024-BE0
445P/Lemmon-PANSTARRS,e,1.0886,126.5908,213.3504,4.050068,0.1209235,0.41396648,82.5030,06/29.0/2024,2000,g 15.0,4.0
# From MPEC 2022-WQ9
446P/McNaught,e,16.6163,336.3746,344.6678,4.564302,0.1010747,0.64672453,76.9930,06/29.0/2024,2000,g 16.5,4.0
# From MPEC 2022-YB4
447P/Sheppard-Tholen,e,7.4386,302.6372,97.7000,5.631303,0.0737549,0.17812078,50.1816,06/29.0/2024,2000,g 12.0,4.0
# From MPEC 2023-A50
448P/PANSTARRS,e,12.1493,161.7577,218.7690,3.635205,0.1422036,0.41858515,94.0686,06/29.0/2024,2000,g 16.0,4.0
# From MPEC 2024-DC6
449P/Leonard,e,15.4718,242.5240,176.7353,3.600058,0.1442912,0.47985584,189.3480,06/29.0/2024,2000,g 16.0,4.0
# From MPEC 2024-D33
450P/LONEOS,e,10.5674,124.7117,21.6573,7.969410,0.0438092,0.31270395,319.0845,06/29.0/2024,2000,g  6.5,4.0
# From MPEC 2023-HD1
451P/Christensen,e,26.4802,300.8870,186.7375,6.345506,0.0616602,0.55898755,35.7205,06/29.0/2024,2000,g 15.5,4.0
# From MPEC 2023-J29
452P/Sheppard-Jewitt,e,6.4214,123.6804,37.0514,7.304564,0.0499244,0.42804435,21.4874,06/29.0/2024,2000,g  9.0,4.0
# From MPEC 2023-RF3
453P/WISE-Lemmon,e,27.0671,42.8962,70.8593,5.463826,0.0771718,0.58295879,37.3387,06/29.0/2024,2000,g 14.0,4.0
# From MPEC 2023-CD7
454P/PANSTARRS,e,19.8127,54.5823,20.1158,4.209242,0.1141296,0.36159127,80.2959,06/29.0/2024,2000,g 14.0,4.0
# From MPEC 2022-Y14
455P/PANSTARRS,e,14.1374,146.1844,237.5112,3.152681,0.1760695,0.30477793,86.2439,06/29.0/2024,2000,g 17.0,4.0
# From MPEC 2023-N01
456P/PANSTARRS,e,16.9702,243.1580,233.3012,3.173423,0.1743460,0.11744524,309.2339,06/29.0/2024,2000,g 13.5,4.0
# From MPEC 2024-LE0
457P/Lemmon-PANSTARRS,e,5.2252,175.9693,104.3953,2.645960,0.2289967,0.11860982,348.0088,06/29.0/2024,2000,g 15.5,4.0
# From MPEC 2023-HD1
458P/Jahn,e,13.6253,1.5826,104.8546,3.858110,0.1300595,0.31717797,79.0205,06/29.0/2024,2000,g 17.3,4.0
# From MPEC 2024-L77
459P/Catalina,e,7.1734,256.9883,205.2058,3.239954,0.1690036,0.57775949,83.4088,06/29.0/2024,2000,g 15.5,4.0
# From MPEC 2023-G14
460P/PANSTARRS,e,18.8963,180.5150,351.9460,3.027119,0.1871371,0.66403514,207.5021,06/29.0/2024,2000,g 21.0,4.0
# From MPEC 2024-GJ3
461P/WISE,e,18.4077,194.3794,174.8325,3.143582,0.1768345,0.56997527,176.5098,06/29.0/2024,2000,g 18.5,4.0
# From MPEC 2024-BE0
462P/LONEOS-PANSTARRS,e,7.0303,322.7522,4.3423,4.873766,0.0916025,0.57818561,63.8692,06/29.0/2024,2000,g 17.0,4.0
# From MPEC 2024-GJ3
463P/NEOWISE,e,29.2895,283.2123,216.3497,2.974351,0.1921391,0.82567164,87.8730,06/29.0/2024,2000,g 18.0,4.0
# From MPEC 2024-M41
464P/PANSTARRS,e,21.6687,309.5780,267.6192,4.685944,0.0971647,0.28046605,47.3515,06/29.0/2024,2000,g 10.5,4.0
# From MPEC 2024-JU4
465P/Hill,e,25.8671,217.9999,141.0837,6.023822,0.0666647,0.61370411,27.7679,06/29.0/2024,2000,g 12.5,4.0
# From MPEC 2024-JU4
466P/PANSTARRS,e,12.2493,119.6773,196.9954,4.052863,0.1207984,0.46846354,50.9445,06/29.0/2024,2000,g 14.0,4.0
# From MPEC 2023-T65
467P/LINEAR-Grauer,e,2.4790,43.2670,267.8346,5.830181,0.0700134,0.05512664,40.2938,06/29.0/2024,2000,g  9.0,4.0
# From MPEC 2023-XP6
468P/SidingSpring,e,50.4471,356.1237,322.5788,7.122731,0.0518483,0.44543398,11.4479,06/29.0/2024,2000,g 11.5,4.0
# From MPEC 2023-P35
469P/PANSTARRS,e,20.1740,178.9657,43.5151,4.340601,0.1089882,0.30765404,302.5015,06/29.0/2024,2000,g 13.5,4.0
# From MPEC 2024-D33
470P/PANSTARRS,e,8.8442,246.1751,151.8904,4.473401,0.1041711,0.39018328,20.2509,06/29.0/2024,2000,g 15.5,4.0
# From MPEC 2024-GJ3
471P/,e,4.7930,283.3095,94.9500,5.710375,0.0722283,0.62826490,13.8534,06/29.0/2024,2000,g 12.0,4.0
# From MPEC 2024-D33
472P/NEAT-LINEAR,e,10.8389,206.0092,218.9713,7.831561,0.0449709,0.56719332,359.2484,06/29.0/2024,2000,g 10.5,4.0
# From MPEC 2024-MB8
473P/NEAT,e,56.9080,22.1844,42.9186,7.968814,0.0438141,0.82358577,5.4224,06/29.0/2024,2000,g 13.5,4.0
# From MPEC 2024-B74
474P/Hogan,e,1.0970,26.7493,11.2776,3.130616,0.1779342,0.18832655,62.1163,06/29.0/2024,2000,g 15.5,4.0
# From MPEC 2024-M41
475P/Spacewatch-LINEAR,e,14.5251,147.3749,40.3907,7.309982,0.0498689,0.44220386,1.3673,06/29.0/2024,2000,g 11.0,4.0
# From MPEC 2024-C04
476P/PANSTARRS,e,19.0079,57.0597,46.7531,4.785723,0.0941419,0.34726813,349.6696,06/29.0/2024,2000,g 12.5,4.0
# From MPEC 2024-GJ3
477P/PANSTARRS,e,8.9149,59.1587,305.9883,3.004789,0.1892270,0.41745724,35.0614,06/29.0/2024,2000,g 14.5,4.0
# From MPEC 2024-L77
478P/ATLAS,e,12.5250,127.2713,13.1852,3.645990,0.1415731,0.34349460,8.2130,06/29.0/2024,2000,g 13.5,4.0
# From MPEC 2024-MB8
479P/Elenin,e,15.3980,295.8321,263.5259,5.624032,0.0738979,0.77885774,4.0464,06/29.0/2024,2000,g 15.0,4.0
# From MPEC 2024-GJ3
